[{"OBJECT_NAME":"ZACUBE-1 (TSHEPISOSAT)","OBJECT_ID":"2013-066B","EPOCH":"2026-03-09T22:19:27.469056","MEAN_MOTION":15.00329659,"ECCENTRICITY":0.00425262,"INCLINATION":97.8171,"RA_OF_ASC_NODE":30.7553,"ARG_OF_PERICENTER":219.1599,"MEAN_ANOMALY":140.6545,"EPHEMERIS_TYPE":0,"CLASSIFICATION_TYPE":"U","NORAD_CAT_ID":39417,"ELEMENT_SET_NO":999,"REV_AT_EPOCH":66584,"BSTAR":0.00042975473,"MEAN_MOTION_DOT":5.431e-5,"MEAN_MOTION_DDOT":0},{"OBJECT_NAME":"STARLINK-4357","OBJECT_ID":"2022-105Q","EPOCH":"2026-03-09T16:04:00.382368","MEAN_MOTION":15.05650154,"ECCENTRICITY":0.00029035,"INCLINATION":97.602,"RA_OF_ASC_NODE":311.1286,"ARG_OF_PERICENTER":81.4497,"MEAN_ANOMALY":278.7059,"EPHEMERIS_TYPE":0,"CLASSIFICATION_TYPE":"U","NORAD_CAT_ID":53662,"ELEMENT_SET_NO":999,"REV_AT_EPOCH":19329,"BSTAR":1.5473544e-5,"MEAN_MOTION_DOT":1.62e-6,"MEAN_MOTION_DDOT":0}]
